ASTROCAST-0402          
1 55109U 23001DE  26068.80661100  .00010930  00000+0  41835-3 0  9996
2 55109  97.5556 160.6821 0004209 216.6984 143.3966 15.26734153129364
STARLINK-36126          
1 66866U 25281U   26067.20398657  .00021657  00000+0  79339-3 0  9995
2 66866  43.0000 352.2644 0001142 275.0337  85.0384 15.27614315 15944
