[{"OBJECT_NAME":"ASTROCAST-0402","OBJECT_ID":"2023-001DE","EPOCH":"2026-03-09T19:21:31.190400","MEAN_MOTION":15.26734153,"ECCENTRICITY":0.00042092,"INCLINATION":97.5556,"RA_OF_ASC_NODE":160.6821,"ARG_OF_PERICENTER":216.6984,"MEAN_ANOMALY":143.3966,"EPHEMERIS_TYPE":0,"CLASSIFICATION_TYPE":"U","NORAD_CAT_ID":55109,"ELEMENT_SET_NO":999,"REV_AT_EPOCH":12936,"BSTAR":0.00041835119,"MEAN_MOTION_DOT":0.0001093,"MEAN_MOTION_DDOT":0},{"OBJECT_NAME":"STARLINK-36126","OBJECT_ID":"2025-281U","EPOCH":"2026-03-08T04:53:44.439648","MEAN_MOTION":15.27614315,"ECCENTRICITY":0.00011424,"INCLINATION":43,"RA_OF_ASC_NODE":352.2644,"ARG_OF_PERICENTER":275.0337,"MEAN_ANOMALY":85.0384,"EPHEMERIS_TYPE":0,"CLASSIFICATION_TYPE":"U","NORAD_CAT_ID":66866,"ELEMENT_SET_NO":999,"REV_AT_EPOCH":1594,"BSTAR":0.00079339144,"MEAN_MOTION_DOT":0.00021657,"MEAN_MOTION_DDOT":0}]
